{
    "links": {
        "self": "http://www.neowsapp.com/rest/v1/neo/3653522?api_key=iIulBulltgU6a56xZRHN4H3l9WmuAYTsLGpBGhQ2"
    },
    "id": "3653522",
    "neo_reference_id": "3653522",
    "name": "(2013 VW4)",
    "designation": "2013 VW4",
    "nasa_jpl_url": "http://ssd.jpl.nasa.gov/sbdb.cgi?sstr=3653522",
    "absolute_magnitude_h": 25.8,
    "estimated_diameter": {
        "kilometers": {
            "estimated_diameter_min": 0.0183888672,
            "estimated_diameter_max": 0.0411187571
        },
        "meters": {
            "estimated_diameter_min": 18.388867207,
            "estimated_diameter_max": 41.1187571041
        },
        "miles": {
            "estimated_diameter_min": 0.0114263088,
            "estimated_diameter_max": 0.0255500032
        },
        "feet": {
            "estimated_diameter_min": 60.3309310875,
            "estimated_diameter_max": 134.9040630575
        }
    },
    "is_potentially_hazardous_asteroid": false,
    "close_approach_data": [
        {
            "close_approach_date": "2013-10-27",
            "close_approach_date_full": "2013-Oct-27 09:34",
            "epoch_date_close_approach": 1382866440000,
            "relative_velocity": {
                "kilometers_per_second": "11.8306531533",
                "kilometers_per_hour": "42590.3513518894",
                "miles_per_hour": "26463.9880386226"
            },
            "miss_distance": {
                "astronomical": "0.0277007157",
                "lunar": "10.7755784073",
                "kilometers": "4143968.066195559",
                "miles": "2574942.3546703542"
            },
            "orbiting_body": "Earth"
        }
    ],
    "orbital_data": {
        "orbit_id": "5",
        "orbit_determination_date": "2017-04-06 08:43:49",
        "first_observation_date": "2013-11-04",
        "last_observation_date": "2013-11-10",
        "data_arc_in_days": 6,
        "observations_used": 21,
        "orbit_uncertainty": "8",
        "minimum_orbit_intersection": ".0223743",
        "jupiter_tisserand_invariant": "4.261",
        "epoch_osculation": "2456602.5",
        "eccentricity": ".4450962040421969",
        "semi_major_axis": "1.584989161443181",
        "inclination": "8.103038686933143",
        "ascending_node_longitude": "220.666640882838",
        "orbital_period": "728.8495198119908",
        "perihelion_distance": ".8795165022367963",
        "perihelion_argument": "118.4705329103295",
        "aphelion_distance": "2.290461820649565",
        "perihelion_time": "2456551.755567896474",
        "mean_anomaly": "25.06415255920269",
        "mean_motion": ".4939291173476566",
        "equinox": "J2000",
        "orbit_class": {
            "orbit_class_type": "APO",
            "orbit_class_description": "Near-Earth asteroid orbits which cross the Earth’s orbit similar to that of 1862 Apollo",
            "orbit_class_range": "a (semi-major axis) > 1.0 AU; q (perihelion) < 1.017 AU"
        }
    },
    "is_sentry_object": false
}